{
  "norad_id": 64188,
  "name": "STARLINK-33929",
  "history": [
    {
      "epoch": "2026-03-28T11:53:03.376608Z",
      "apogee_km": 475.99928567122333,
      "perigee_km": 474.5321092217537,
      "latitude_deg": -1.1684340551541431e-06,
      "longitude_deg": -0.35087551754736684,
      "height_km": 476.10680790725894,
      "semi_major_axis_km": 6853.402697446488,
      "eccentricity": 0.00010704,
      "inclination_deg": 53.1627,
      "raan_deg": 3.828,
      "arg_perigee_deg": 85.5025,
      "mean_anomaly_deg": 274.6098,
      "mean_motion_rev_day": 15.30183044
    },
    {
      "epoch": "2026-03-29T03:33:35.356896Z",
      "apogee_km": 475.6284762220894,
      "perigee_km": 474.70876260796376,
      "latitude_deg": 3.6268152932177026e-05,
      "longitude_deg": 120.83842908429166,
      "height_km": 476.09156706320397,
      "semi_major_axis_km": 6853.305619415026,
      "eccentricity": 6.71e-05,
      "inclination_deg": 53.1622,
      "raan_deg": 0.7943,
      "arg_perigee_deg": 92.9714,
      "mean_anomaly_deg": 267.1364,
      "mean_motion_rev_day": 15.30215557
    },
    {
      "epoch": "2026-03-30T03:04:23.364480Z",
      "apogee_km": 475.95227984979556,
      "perigee_km": 474.49292545600747,
      "latitude_deg": 6.816188564494504e-05,
      "longitude_deg": 122.62406345286185,
      "height_km": 475.92393386027,
      "semi_major_axis_km": 6853.359602652901,
      "eccentricity": 0.00010647,
      "inclination_deg": 53.1617,
      "raan_deg": 356.2456,
      "arg_perigee_deg": 74.3163,
      "mean_anomaly_deg": 285.7956,
      "mean_motion_rev_day": 15.30197477
    },
    {
      "epoch": "2026-03-30T10:54:39.626784Z",
      "apogee_km": 476.1812852434887,
      "perigee_km": 474.26563392782555,
      "latitude_deg": -4.2982951483099554e-05,
      "longitude_deg": 3.215032342130616,
      "height_km": 476.0568115793987,
      "semi_major_axis_km": 6853.360459585657,
      "eccentricity": 0.00013976,
      "inclination_deg": 53.1636,
      "raan_deg": 354.7263,
      "arg_perigee_deg": 86.1121,
      "mean_anomaly_deg": 274.0039,
      "mean_motion_rev_day": 15.3019719
    },
    {
      "epoch": "2026-03-30T21:53:01.835520Z",
      "apogee_km": 475.93561023936763,
      "perigee_km": 474.4392553827083,
      "latitude_deg": -6.0240365730082516e-05,
      "longitude_deg": -163.95175473933452,
      "height_km": 476.0563497684734,
      "semi_major_axis_km": 6853.324432811038,
      "eccentricity": 0.00010917,
      "inclination_deg": 53.1623,
      "raan_deg": 352.6027,
      "arg_perigee_deg": 87.7279,
      "mean_anomaly_deg": 272.3846,
      "mean_motion_rev_day": 15.30209256
    },
    {
      "epoch": "2026-03-31T21:23:50.066880Z",
      "apogee_km": 476.0335103901016,
      "perigee_km": 474.4092644522834,
      "latitude_deg": 4.0341668232310176e-05,
      "longitude_deg": -162.16780337930734,
      "height_km": 476.2207514252585,
      "semi_major_axis_km": 6853.358387421193,
      "eccentricity": 0.0001185,
      "inclination_deg": 53.1613,
      "raan_deg": 348.0532,
      "arg_perigee_deg": 97.1462,
      "mean_anomaly_deg": 262.9674,
      "mean_motion_rev_day": 15.30197884
    },
    {
      "epoch": "2026-04-01T20:54:37.564704Z",
      "apogee_km": 476.09650036815674,
      "perigee_km": 474.20499295007994,
      "latitude_deg": -3.892872767289663e-05,
      "longitude_deg": -160.3833213692631,
      "height_km": 476.1158202524745,
      "semi_major_axis_km": 6853.287746659118,
      "eccentricity": 0.000138,
      "inclination_deg": 53.1599,
      "raan_deg": 343.5013,
      "arg_perigee_deg": 94.0711,
      "mean_anomaly_deg": 266.0447,
      "mean_motion_rev_day": 15.30221543
    },
    {
      "epoch": "2026-04-02T17:17:18.734208Z",
      "apogee_km": 476.133245330082,
      "perigee_km": 474.1814271031262,
      "latitude_deg": 3.06187687908274e-05,
      "longitude_deg": -110.83490742835752,
      "height_km": 476.1132171217903,
      "semi_major_axis_km": 6853.294336216603,
      "eccentricity": 0.0001424,
      "inclination_deg": 53.159,
      "raan_deg": 339.5581,
      "arg_perigee_deg": 93.4143,
      "mean_anomaly_deg": 266.7021,
      "mean_motion_rev_day": 15.30219336
    },
    {
      "epoch": "2026-04-02T23:33:31.551552Z",
      "apogee_km": 476.0497116494289,
      "perigee_km": 474.39078799353683,
      "latitude_deg": 3.949692924333615e-05,
      "longitude_deg": 153.6406846954986,
      "height_km": 475.9835574052883,
      "semi_major_axis_km": 6853.357249821483,
      "eccentricity": 0.00012103,
      "inclination_deg": 53.1581,
      "raan_deg": 338.3446,
      "arg_perigee_deg": 80.6567,
      "mean_anomaly_deg": 279.4571,
      "mean_motion_rev_day": 15.30198265
    },
    {
      "epoch": "2026-04-03T15:14:04.021728Z",
      "apogee_km": 476.63626369744,
      "perigee_km": 473.7592337699216,
      "latitude_deg": -1.6845389064781906e-05,
      "longitude_deg": -85.17292727462933,
      "height_km": 476.0804839913853,
      "semi_major_axis_km": 6853.3347487336805,
      "eccentricity": 0.0002099,
      "inclination_deg": 53.158,
      "raan_deg": 335.3101,
      "arg_perigee_deg": 89.4445,
      "mean_anomaly_deg": 270.6796,
      "mean_motion_rev_day": 15.30205801
    },
    {
      "epoch": "2026-04-04T21:01:04.705824Z",
      "apogee_km": 476.1178675264,
      "perigee_km": 474.6347672445181,
      "latitude_deg": 8.519920102879696e-06,
      "longitude_deg": -178.91302547574998,
      "height_km": 475.9734211677232,
      "semi_major_axis_km": 6853.513317385459,
      "eccentricity": 0.0001082,
      "inclination_deg": 53.1572,
      "raan_deg": 329.546,
      "arg_perigee_deg": 66.0492,
      "mean_anomaly_deg": 294.0622,
      "mean_motion_rev_day": 15.30145997
    },
    {
      "epoch": "2026-04-05T07:59:27.852000Z",
      "apogee_km": 475.96862540382426,
      "perigee_km": 474.6219259616537,
      "latitude_deg": -2.9978605045791516e-06,
      "longitude_deg": 13.915573781508595,
      "height_km": 476.15241217110815,
      "semi_major_axis_km": 6853.432275682739,
      "eccentricity": 9.825e-05,
      "inclination_deg": 53.1571,
      "raan_deg": 327.4217,
      "arg_perigee_deg": 86.5084,
      "mean_anomaly_deg": 273.6029,
      "mean_motion_rev_day": 15.30173138
    },
    {
      "epoch": "2026-04-06T01:14:03.222816Z",
      "apogee_km": 475.8881776114258,
      "perigee_km": 474.50462666420117,
      "latitude_deg": -2.006297217684196e-05,
      "longitude_deg": 111.22252998511142,
      "height_km": 476.06464499487066,
      "semi_major_axis_km": 6853.333402137813,
      "eccentricity": 0.00010094,
      "inclination_deg": 53.158,
      "raan_deg": 324.0842,
      "arg_perigee_deg": 87.5164,
      "mean_anomaly_deg": 272.5952,
      "mean_motion_rev_day": 15.30206252
    },
    {
      "epoch": "2026-04-07T00:44:50.099424Z",
      "apogee_km": 475.9401500972963,
      "perigee_km": 474.4280333316192,
      "latitude_deg": 1.6154860439118608e-05,
      "longitude_deg": 113.01108985445423,
      "height_km": 476.02946683268954,
      "semi_major_axis_km": 6853.321091714457,
      "eccentricity": 0.00011032,
      "inclination_deg": 53.1584,
      "raan_deg": 319.5337,
      "arg_perigee_deg": 85.9984,
      "mean_anomaly_deg": 274.1143,
      "mean_motion_rev_day": 15.30210375
    },
    {
      "epoch": "2026-04-07T21:07:31.714752Z",
      "apogee_km": 476.00377662158553,
      "perigee_km": 474.4453222052498,
      "latitude_deg": 5.8031372005939346e-05,
      "longitude_deg": 162.55481734230779,
      "height_km": 476.0423816714363,
      "semi_major_axis_km": 6853.361549413417,
      "eccentricity": 0.0001137,
      "inclination_deg": 53.1588,
      "raan_deg": 315.5877,
      "arg_perigee_deg": 84.0855,
      "mean_anomaly_deg": 276.0276,
      "mean_motion_rev_day": 15.30196825
    },
    {
      "epoch": "2026-04-08T14:22:07.032000Z",
      "apogee_km": 476.0845931040694,
      "perigee_km": 474.3072497442281,
      "latitude_deg": -2.5377423065291315e-06,
      "longitude_deg": -100.13613593397292,
      "height_km": 475.9404639441794,
      "semi_major_axis_km": 6853.3329214241485,
      "eccentricity": 0.00012967,
      "inclination_deg": 53.1592,
      "raan_deg": 312.2521,
      "arg_perigee_deg": 80.0572,
      "mean_anomaly_deg": 280.0575,
      "mean_motion_rev_day": 15.30206413
    },
    {
      "epoch": "2026-04-09T18:35:04.943328Z",
      "apogee_km": 476.5425434898325,
      "perigee_km": 473.86151726114986,
      "latitude_deg": 7.051843723570278e-06,
      "longitude_deg": -169.9968229768606,
      "height_km": 475.23614405095014,
      "semi_major_axis_km": 6853.33903037549,
      "eccentricity": 0.0001956,
      "inclination_deg": 53.1608,
      "raan_deg": 306.7915,
      "arg_perigee_deg": 49.8835,
      "mean_anomaly_deg": 310.2337,
      "mean_motion_rev_day": 15.30204367
    },
    {
      "epoch": "2026-04-10T13:23:43.745280Z",
      "apogee_km": 476.2425918503159,
      "perigee_km": 474.22770043935,
      "latitude_deg": -4.513412858321006e-07,
      "longitude_deg": -96.57093656964756,
      "height_km": 475.91200167468077,
      "semi_major_axis_km": 6853.372146144833,
      "eccentricity": 0.000147,
      "inclination_deg": 53.16,
      "raan_deg": 303.1516,
      "arg_perigee_deg": 77.3285,
      "mean_anomaly_deg": 282.788,
      "mean_motion_rev_day": 15.30193276
    },
    {
      "epoch": "2026-04-11T19:10:44.463936Z",
      "apogee_km": 476.24897991690705,
      "perigee_km": 474.1258200177972,
      "latitude_deg": 3.418481439873998e-05,
      "longitude_deg": 169.6866263025465,
      "height_km": 475.94226127582556,
      "semi_major_axis_km": 6853.324399967351,
      "eccentricity": 0.0001549,
      "inclination_deg": 53.1601,
      "raan_deg": 297.3853,
      "arg_perigee_deg": 82.2662,
      "mean_anomaly_deg": 277.8515,
      "mean_motion_rev_day": 15.30209267
    },
    {
      "epoch": "2026-04-12T21:49:37.844256Z",
      "apogee_km": 475.7182196488302,
      "perigee_km": 474.63676662181297,
      "latitude_deg": -9.480964277187364e-06,
      "longitude_deg": 123.71277390119168,
      "height_km": 475.9380523172108,
      "semi_major_axis_km": 6853.314493135321,
      "eccentricity": 7.89e-05,
      "inclination_deg": 53.1621,
      "raan_deg": 292.2283,
      "arg_perigee_deg": 75.1669,
      "mean_anomaly_deg": 284.9419,
      "mean_motion_rev_day": 15.30212585
    }
  ]
}